AGILA                   
1 62456U 24252C   26061.28654248 -.00000199  00000+0  00000+0 0  9990
2 62456   0.0263 160.4308 0001105 183.7126  71.1919  1.00273019  4086
NUVIEW BRAVO            
1 62457U 24252D   26061.50032558 -.00000232  00000+0  00000+0 0  9998
2 62457   0.0654 172.4789 0000727 209.4290 235.3269  1.00269966  2721
THURAYA-4               
1 62483U 25001A   26061.16904517  .00000122  00000+0  00000+0 0  9992
2 62483   0.0179 101.2179 0000484 237.1010 286.7797  1.00272909  3103
FALCON 9 R/B            
1 62484U 25001B   26060.99948164 -.00000285  00000+0  13511-2 0  9994
2 62484  25.2766 231.8782 7894321 326.0552   2.1717  1.41762185  5987
SHIJIAN-25 (SJ-25)      
1 62485U 25002A   26061.23998486 -.00000366  00000+0  00000+0 0  9992
2 62485   4.8603  61.7855 0046989 166.0952 145.6199  1.00257133  4286
BREEZE-M DEB            
1 62722U 08003D   26056.40651192 -.00000367  00000+0  00000+0 0  9992
2 62722  11.1985  27.3192 0795196 184.5329 174.7885  1.01905322 11633
TJS-14                  
1 62804U 25017A   26061.91468774  .00000098  00000+0  00000+0 0  9991
2 62804   1.0311 289.9763 0002366  48.2909 170.0599  1.00269279  4204
NVS-02 (IRNSS-1K)       
1 62850U 25020A   26061.02634841  .00000464  00000+0  57814-3 0  9994
2 62850  20.8424 298.6112 7349419  78.1638 348.8744  2.17710344  8647
SPAINSAT NG I           
1 62852U 25021A   26061.52251235  .00000000  00000+0  00000+0 0  9991
2 62852   0.0273 143.5001 0000232 195.4793  38.3899  1.00272542  2911
FALCON 9 R/B            
1 62853U 25021B   26059.88159512 -.00000283  00000+0  82238-3 0  9994
2 62853  24.8768 277.1730 8263191 288.3525   4.6527  1.11100884  4384
QZS-6 (MICHIBIKI-6)     
1 62876U 25023A   26061.85007671 -.00000249  00000+0  00000+0 0  9994
2 62876   0.0437 301.6931 0001911  31.5635 223.8945  1.00270421  3893
ZHONGXING-10R           
1 63075U 25036A   26061.82104887 -.00000368  00000+0  00000+0 0  9996
2 63075   0.0344 235.7568 0001036 333.3681 357.5382  1.00269026  3885
TJS-15                  
1 63157U 25045A   26061.55335538 -.00000280  00000+0  00000+0 0  9999
2 63157   0.2143  88.1513 0007164 259.5054 106.1685  1.00268025  3697
TIANLIAN 2-04           
1 63361U 25062A   26061.68885603 -.00000157  00000+0  00000+0 0  9995
2 63361   4.6479 275.8933 0035231   9.2992 203.2896  1.00271712  3535
TJS-16                  
1 63397U 25064A   26061.51213667 -.00000122  00000+0  00000+0 0  9995
2 63397   0.8230  81.9595 0005285 255.4976 167.7625  1.00272202  3326
TJS-17                  
1 63524U 25073A   26061.82267098 -.00000086  00000+0  00000+0 0  9997
2 63524   0.7892  83.5654 0004561 246.5509 291.1170  1.00271564  3220
TIANLIAN 2-05           
1 63662U 25084A   26061.82128164  .00000103  00000+0  00000+0 0  9991
2 63662   4.7205 280.9912 0003162  76.6743 118.9453  1.00273195  3315
