[{"OBJECT_NAME":"AGILA","OBJECT_ID":"2024-252C","EPOCH":"2026-03-02T06:52:37.270272","MEAN_MOTION":1.00273019,"ECCENTRICITY":0.0001105,"INCLINATION":0.0263,"RA_OF_ASC_NODE":160.4308,"ARG_OF_PERICENTER":183.7126,"MEAN_ANOMALY":71.1919,"EPHEMERIS_TYPE":0,"CLASSIFICATION_TYPE":"U","NORAD_CAT_ID":62456,"ELEMENT_SET_NO":999,"REV_AT_EPOCH":408,"BSTAR":0,"MEAN_MOTION_DOT":-1.99e-6,"MEAN_MOTION_DDOT":0},{"OBJECT_NAME":"NUVIEW BRAVO","OBJECT_ID":"2024-252D","EPOCH":"2026-03-02T12:00:28.130112","MEAN_MOTION":1.00269966,"ECCENTRICITY":7.27e-5,"INCLINATION":0.0654,"RA_OF_ASC_NODE":172.4789,"ARG_OF_PERICENTER":209.429,"MEAN_ANOMALY":235.3269,"EPHEMERIS_TYPE":0,"CLASSIFICATION_TYPE":"U","NORAD_CAT_ID":62457,"ELEMENT_SET_NO":999,"REV_AT_EPOCH":272,"BSTAR":0,"MEAN_MOTION_DOT":-2.32e-6,"MEAN_MOTION_DDOT":0},{"OBJECT_NAME":"THURAYA-4","OBJECT_ID":"2025-001A","EPOCH":"2026-03-02T04:03:25.502688","MEAN_MOTION":1.00272909,"ECCENTRICITY":4.843e-5,"INCLINATION":0.0179,"RA_OF_ASC_NODE":101.2179,"ARG_OF_PERICENTER":237.101,"MEAN_ANOMALY":286.7797,"EPHEMERIS_TYPE":0,"CLASSIFICATION_TYPE":"U","NORAD_CAT_ID":62483,"ELEMENT_SET_NO":999,"REV_AT_EPOCH":310,"BSTAR":0,"MEAN_MOTION_DOT":1.22e-6,"MEAN_MOTION_DDOT":0},{"OBJECT_NAME":"FALCON 9 R/B","OBJECT_ID":"2025-001B","EPOCH":"2026-03-01T23:59:15.213696","MEAN_MOTION":1.41762185,"ECCENTRICITY":0.7894321,"INCLINATION":25.2766,"RA_OF_ASC_NODE":231.8782,"ARG_OF_PERICENTER":326.0552,"MEAN_ANOMALY":2.1717,"EPHEMERIS_TYPE":0,"CLASSIFICATION_TYPE":"U","NORAD_CAT_ID":62484,"ELEMENT_SET_NO":999,"REV_AT_EPOCH":598,"BSTAR":0.0013511,"MEAN_MOTION_DOT":-2.85e-6,"MEAN_MOTION_DDOT":0},{"OBJECT_NAME":"SHIJIAN-25 (SJ-25)","OBJECT_ID":"2025-002A","EPOCH":"2026-03-02T05:45:34.691904","MEAN_MOTION":1.00257133,"ECCENTRICITY":0.0046989,"INCLINATION":4.8603,"RA_OF_ASC_NODE":61.7855,"ARG_OF_PERICENTER":166.0952,"MEAN_ANOMALY":145.6199,"EPHEMERIS_TYPE":0,"CLASSIFICATION_TYPE":"U","NORAD_CAT_ID":62485,"ELEMENT_SET_NO":999,"REV_AT_EPOCH":428,"BSTAR":0,"MEAN_MOTION_DOT":-3.66e-6,"MEAN_MOTION_DDOT":0},{"OBJECT_NAME":"BREEZE-M DEB","OBJECT_ID":"2008-003D","EPOCH":"2026-02-25T09:45:22.629888","MEAN_MOTION":1.01905322,"ECCENTRICITY":0.07951967,"INCLINATION":11.1985,"RA_OF_ASC_NODE":27.3192,"ARG_OF_PERICENTER":184.5329,"MEAN_ANOMALY":174.7885,"EPHEMERIS_TYPE":0,"CLASSIFICATION_TYPE":"U","NORAD_CAT_ID":62722,"ELEMENT_SET_NO":999,"REV_AT_EPOCH":1163,"BSTAR":0,"MEAN_MOTION_DOT":-3.67e-6,"MEAN_MOTION_DDOT":0},{"OBJECT_NAME":"TJS-14","OBJECT_ID":"2025-017A","EPOCH":"2026-03-02T21:57:09.020736","MEAN_MOTION":1.00269279,"ECCENTRICITY":0.0002366,"INCLINATION":1.0311,"RA_OF_ASC_NODE":289.9763,"ARG_OF_PERICENTER":48.2909,"MEAN_ANOMALY":170.0599,"EPHEMERIS_TYPE":0,"CLASSIFICATION_TYPE":"U","NORAD_CAT_ID":62804,"ELEMENT_SET_NO":999,"REV_AT_EPOCH":420,"BSTAR":0,"MEAN_MOTION_DOT":9.8e-7,"MEAN_MOTION_DDOT":0},{"OBJECT_NAME":"NVS-02 (IRNSS-1K)","OBJECT_ID":"2025-020A","EPOCH":"2026-03-02T00:37:56.502624","MEAN_MOTION":2.17710344,"ECCENTRICITY":0.73494191,"INCLINATION":20.8424,"RA_OF_ASC_NODE":298.6112,"ARG_OF_PERICENTER":78.1638,"MEAN_ANOMALY":348.8744,"EPHEMERIS_TYPE":0,"CLASSIFICATION_TYPE":"U","NORAD_CAT_ID":62850,"ELEMENT_SET_NO":999,"REV_AT_EPOCH":864,"BSTAR":0.00057813826,"MEAN_MOTION_DOT":4.64e-6,"MEAN_MOTION_DDOT":0},{"OBJECT_NAME":"SPAINSAT NG I","OBJECT_ID":"2025-021A","EPOCH":"2026-03-02T12:32:25.067040","MEAN_MOTION":1.00272542,"ECCENTRICITY":2.32e-5,"INCLINATION":0.0273,"RA_OF_ASC_NODE":143.5001,"ARG_OF_PERICENTER":195.4793,"MEAN_ANOMALY":38.3899,"EPHEMERIS_TYPE":0,"CLASSIFICATION_TYPE":"U","NORAD_CAT_ID":62852,"ELEMENT_SET_NO":999,"REV_AT_EPOCH":291,"BSTAR":0,"MEAN_MOTION_DOT":0,"MEAN_MOTION_DDOT":0},{"OBJECT_NAME":"FALCON 9 R/B","OBJECT_ID":"2025-021B","EPOCH":"2026-02-28T21:09:29.818368","MEAN_MOTION":1.11100884,"ECCENTRICITY":0.8263191,"INCLINATION":24.8768,"RA_OF_ASC_NODE":277.173,"ARG_OF_PERICENTER":288.3525,"MEAN_ANOMALY":4.6527,"EPHEMERIS_TYPE":0,"CLASSIFICATION_TYPE":"U","NORAD_CAT_ID":62853,"ELEMENT_SET_NO":999,"REV_AT_EPOCH":438,"BSTAR":0.00082238,"MEAN_MOTION_DOT":-2.83e-6,"MEAN_MOTION_DDOT":0},{"OBJECT_NAME":"QZS-6 (MICHIBIKI-6)","OBJECT_ID":"2025-023A","EPOCH":"2026-03-02T20:24:06.627744","MEAN_MOTION":1.00270421,"ECCENTRICITY":0.0001911,"INCLINATION":0.0437,"RA_OF_ASC_NODE":301.6931,"ARG_OF_PERICENTER":31.5635,"MEAN_ANOMALY":223.8945,"EPHEMERIS_TYPE":0,"CLASSIFICATION_TYPE":"U","NORAD_CAT_ID":62876,"ELEMENT_SET_NO":999,"REV_AT_EPOCH":389,"BSTAR":0,"MEAN_MOTION_DOT":-2.49e-6,"MEAN_MOTION_DDOT":0},{"OBJECT_NAME":"ZHONGXING-10R","OBJECT_ID":"2025-036A","EPOCH":"2026-03-02T19:42:18.622368","MEAN_MOTION":1.00269026,"ECCENTRICITY":0.0001036,"INCLINATION":0.0344,"RA_OF_ASC_NODE":235.7568,"ARG_OF_PERICENTER":333.3681,"MEAN_ANOMALY":357.5382,"EPHEMERIS_TYPE":0,"CLASSIFICATION_TYPE":"U","NORAD_CAT_ID":63075,"ELEMENT_SET_NO":999,"REV_AT_EPOCH":388,"BSTAR":0,"MEAN_MOTION_DOT":-3.68e-6,"MEAN_MOTION_DDOT":0},{"OBJECT_NAME":"TJS-15","OBJECT_ID":"2025-045A","EPOCH":"2026-03-02T13:16:49.904832","MEAN_MOTION":1.00268025,"ECCENTRICITY":0.0007164,"INCLINATION":0.2143,"RA_OF_ASC_NODE":88.1513,"ARG_OF_PERICENTER":259.5054,"MEAN_ANOMALY":106.1685,"EPHEMERIS_TYPE":0,"CLASSIFICATION_TYPE":"U","NORAD_CAT_ID":63157,"ELEMENT_SET_NO":999,"REV_AT_EPOCH":369,"BSTAR":0,"MEAN_MOTION_DOT":-2.8e-6,"MEAN_MOTION_DDOT":0},{"OBJECT_NAME":"TIANLIAN 2-04","OBJECT_ID":"2025-062A","EPOCH":"2026-03-02T16:31:57.160992","MEAN_MOTION":1.00271712,"ECCENTRICITY":0.0035231,"INCLINATION":4.6479,"RA_OF_ASC_NODE":275.8933,"ARG_OF_PERICENTER":9.2992,"MEAN_ANOMALY":203.2896,"EPHEMERIS_TYPE":0,"CLASSIFICATION_TYPE":"U","NORAD_CAT_ID":63361,"ELEMENT_SET_NO":999,"REV_AT_EPOCH":353,"BSTAR":0,"MEAN_MOTION_DOT":-1.57e-6,"MEAN_MOTION_DDOT":0},{"OBJECT_NAME":"TJS-16","OBJECT_ID":"2025-064A","EPOCH":"2026-03-02T12:17:28.608288","MEAN_MOTION":1.00272202,"ECCENTRICITY":0.0005285,"INCLINATION":0.823,"RA_OF_ASC_NODE":81.9595,"ARG_OF_PERICENTER":255.4976,"MEAN_ANOMALY":167.7625,"EPHEMERIS_TYPE":0,"CLASSIFICATION_TYPE":"U","NORAD_CAT_ID":63397,"ELEMENT_SET_NO":999,"REV_AT_EPOCH":332,"BSTAR":0,"MEAN_MOTION_DOT":-1.22e-6,"MEAN_MOTION_DDOT":0},{"OBJECT_NAME":"TJS-17","OBJECT_ID":"2025-073A","EPOCH":"2026-03-02T19:44:38.772672","MEAN_MOTION":1.00271564,"ECCENTRICITY":0.0004561,"INCLINATION":0.7892,"RA_OF_ASC_NODE":83.5654,"ARG_OF_PERICENTER":246.5509,"MEAN_ANOMALY":291.117,"EPHEMERIS_TYPE":0,"CLASSIFICATION_TYPE":"U","NORAD_CAT_ID":63524,"ELEMENT_SET_NO":999,"REV_AT_EPOCH":322,"BSTAR":0,"MEAN_MOTION_DOT":-8.6e-7,"MEAN_MOTION_DDOT":0},{"OBJECT_NAME":"TIANLIAN 2-05","OBJECT_ID":"2025-084A","EPOCH":"2026-03-02T19:42:38.733696","MEAN_MOTION":1.00273195,"ECCENTRICITY":0.0003162,"INCLINATION":4.7205,"RA_OF_ASC_NODE":280.9912,"ARG_OF_PERICENTER":76.6743,"MEAN_ANOMALY":118.9453,"EPHEMERIS_TYPE":0,"CLASSIFICATION_TYPE":"U","NORAD_CAT_ID":63662,"ELEMENT_SET_NO":999,"REV_AT_EPOCH":331,"BSTAR":0,"MEAN_MOTION_DOT":1.03e-6,"MEAN_MOTION_DDOT":0}]
